{
  "type": "FeatureCollection",
  "features": [
    {
      "type": "Feature",
      "properties": {
        "norad_id": 66569,
        "name": "STARLINK-35835",
        "group": "last-30-days",
        "lat": -18.069283710864717,
        "lon": 58.986864826350036,
        "alt_km": 416.2187059587568,
        "timestamp": "2025-12-19T20:42:58.810931+00:00",
        "meta_object_name": "STARLINK-35835",
        "meta_object_id": "2025-268N",
        "meta_epoch": "2025-12-19T06:55:10.327872",
        "meta_mean_motion": 15.50612089,
        "meta_eccentricity": 9.69e-05,
        "meta_inclination": 42.9976,
        "meta_ra_of_asc_node": 82.847,
        "meta_arg_of_pericenter": 269.2865,
        "meta_mean_anomaly": 90.7884,
        "meta_ephemeris_type": 0,
        "meta_classification_type": "U",
        "meta_norad_cat_id": 66569,
        "meta_element_set_no": 999,
        "meta_rev_at_epoch": 564,
        "meta_bstar": 0.00087249405,
        "meta_mean_motion_dot": 0.00051239,
        "meta_mean_motion_ddot": 0,
        "tle_line1": "1 66569U 25268N   25353.28831398  .00051239  00000+0  87249-3 0  9997",
        "tle_line2": "2 66569  42.9976  82.8470 0000969 269.2865  90.7884 15.50612089  5640"
      },
      "geometry": {
        "type": "Point",
        "coordinates": [
          58.986864826350036,
          -18.069283710864717
        ]
      }
    },
    {
      "type": "Feature",
      "properties": {
        "norad_id": 66570,
        "name": "STARLINK-35834",
        "group": "last-30-days",
        "lat": -16.81521245619481,
        "lon": 60.549841527570734,
        "alt_km": 416.89478154874905,
        "timestamp": "2025-12-19T20:42:58.810941+00:00",
        "meta_object_name": "STARLINK-35834",
        "meta_object_id": "2025-268P",
        "meta_epoch": "2025-12-19T06:54:40.682304",
        "meta_mean_motion": 15.50626441,
        "meta_eccentricity": 8.154e-05,
        "meta_inclination": 42.9944,
        "meta_ra_of_asc_node": 82.8435,
        "meta_arg_of_pericenter": 129.3253,
        "meta_mean_anomaly": 230.768,
        "meta_ephemeris_type": 0,
        "meta_classification_type": "U",
        "meta_norad_cat_id": 66570,
        "meta_element_set_no": 999,
        "meta_rev_at_epoch": 564,
        "meta_bstar": 0.00087255303,
        "meta_mean_motion_dot": 0.00051269,
        "meta_mean_motion_ddot": 0,
        "tle_line1": "1 66570U 25268P   25353.28797086  .00051269  00000+0  87255-3 0  9994",
        "tle_line2": "2 66570  42.9944  82.8435 0000815 129.3253 230.7680 15.50626441  5642"
      },
      "geometry": {
        "type": "Point",
        "coordinates": [
          60.549841527570734,
          -16.81521245619481
        ]
      }
    },
    {
      "type": "Feature",
      "properties": {
        "norad_id": 66571,
        "name": "STARLINK-35836",
        "group": "last-30-days",
        "lat": -15.332101827619724,
        "lon": 62.358750353127284,
        "alt_km": 415.36518095760584,
        "timestamp": "2025-12-19T20:42:58.810951+00:00",
        "meta_object_name": "STARLINK-35836",
        "meta_object_id": "2025-268Q",
        "meta_epoch": "2025-12-18T15:26:35.940192",
        "meta_mean_motion": 15.50617187,
        "meta_eccentricity": 0.00024915,
        "meta_inclination": 43.003,
        "meta_ra_of_asc_node": 86.6048,
        "meta_arg_of_pericenter": 261.4682,
        "meta_mean_anomaly": 98.5896,
        "meta_ephemeris_type": 0,
        "meta_classification_type": "U",
        "meta_norad_cat_id": 66571,
        "meta_element_set_no": 999,
        "meta_rev_at_epoch": 554,
        "meta_bstar": 0.0010497199,
        "meta_mean_motion_dot": 0.00061816,
        "meta_mean_motion_ddot": 0,
        "tle_line1": "1 66571U 25268Q   25352.64347153  .00061816  00000+0  10497-2 0  9992",
        "tle_line2": "2 66571  43.0030  86.6048 0002491 261.4682  98.5896 15.50617187  5544"
      },
      "geometry": {
        "type": "Point",
        "coordinates": [
          62.358750353127284,
          -15.332101827619724
        ]
      }
    },
    {
      "type": "Feature",
      "properties": {
        "norad_id": 66572,
        "name": "STARLINK-35870",
        "group": "last-30-days",
        "lat": -14.068404405380479,
        "lon": 63.86403915140753,
        "alt_km": 415.37375825115396,
        "timestamp": "2025-12-19T20:42:58.810961+00:00",
        "meta_object_name": "STARLINK-35870",
        "meta_object_id": "2025-268R",
        "meta_epoch": "2025-12-18T15:26:06.608256",
        "meta_mean_motion": 15.50618966,
        "meta_eccentricity": 0.00017111,
        "meta_inclination": 42.998,
        "meta_ra_of_asc_node": 86.605,
        "meta_arg_of_pericenter": 265.1902,
        "meta_mean_anomaly": 94.8763,
        "meta_ephemeris_type": 0,
        "meta_classification_type": "U",
        "meta_norad_cat_id": 66572,
        "meta_element_set_no": 999,
        "meta_rev_at_epoch": 554,
        "meta_bstar": 0.0011218893,
        "meta_mean_motion_dot": 0.00066127,
        "meta_mean_motion_ddot": 0,
        "tle_line1": "1 66572U 25268R   25352.64313204  .00066127  00000+0  11219-2 0  9996",
        "tle_line2": "2 66572  42.9980  86.6050 0001711 265.1902  94.8763 15.50618966  5548"
      },
      "geometry": {
        "type": "Point",
        "coordinates": [
          63.86403915140753,
          -14.068404405380479
        ]
      }
    },
    {
      "type": "Feature",
      "properties": {
        "norad_id": 66573,
        "name": "STARLINK-35650",
        "group": "last-30-days",
        "lat": -13.088530558181443,
        "lon": 65.01656619401558,
        "alt_km": 415.5859846554995,
        "timestamp": "2025-12-19T20:42:58.810972+00:00",
        "meta_object_name": "STARLINK-35650",
        "meta_object_id": "2025-268S",
        "meta_epoch": "2025-12-19T06:53:11.809536",
        "meta_mean_motion": 15.50608336,
        "meta_eccentricity": 0.00015964,
        "meta_inclination": 43.0012,
        "meta_ra_of_asc_node": 82.8355,
        "meta_arg_of_pericenter": 272.2669,
        "meta_mean_anomaly": 87.8009,
        "meta_ephemeris_type": 0,
        "meta_classification_type": "U",
        "meta_norad_cat_id": 66573,
        "meta_element_set_no": 999,
        "meta_rev_at_epoch": 564,
        "meta_bstar": 0.0010075314,
        "meta_mean_motion_dot": 0.00059277,
        "meta_mean_motion_ddot": 0,
        "tle_line1": "1 66573U 25268S   25353.28694224  .00059277  00000+0  10075-2 0  9999",
        "tle_line2": "2 66573  43.0012  82.8355 0001596 272.2669  87.8009 15.50608336  5649"
      },
      "geometry": {
        "type": "Point",
        "coordinates": [
          65.01656619401558,
          -13.088530558181443
        ]
      }
    },
    {
      "type": "Feature",
      "properties": {
        "norad_id": 66574,
        "name": "STARLINK-35812",
        "group": "last-30-days",
        "lat": -11.554073103841517,
        "lon": 66.78320225716806,
        "alt_km": 415.19958788792155,
        "timestamp": "2025-12-19T20:42:58.810982+00:00",
        "meta_object_name": "STARLINK-35812",
        "meta_object_id": "2025-268T",
        "meta_epoch": "2025-12-19T06:52:40.530144",
        "meta_mean_motion": 15.50730062,
        "meta_eccentricity": 0.00015817,
        "meta_inclination": 42.9981,
        "meta_ra_of_asc_node": 82.8317,
        "meta_arg_of_pericenter": 261.578,
        "meta_mean_anomaly": 98.4901,
        "meta_ephemeris_type": 0,
        "meta_classification_type": "U",
        "meta_norad_cat_id": 66574,
        "meta_element_set_no": 999,
        "meta_rev_at_epoch": 564,
        "meta_bstar": 0.0015164365,
        "meta_mean_motion_dot": 0.00090136,
        "meta_mean_motion_ddot": 0,
        "tle_line1": "1 66574U 25268T   25353.28658021  .00090136  00000+0  15164-2 0  9998",
        "tle_line2": "2 66574  42.9981  82.8317 0001581 261.5780  98.4901 15.50730062  5641"
      },
      "geometry": {
        "type": "Point",
        "coordinates": [
          66.78320225716806,
          -11.554073103841517
        ]
      }
    },
    {
      "type": "Feature",
      "properties": {
        "norad_id": 66575,
        "name": "STARLINK-35810",
        "group": "last-30-days",
        "lat": -10.529194933638008,
        "lon": 67.9477320741799,
        "alt_km": 415.5543073740664,
        "timestamp": "2025-12-19T20:42:58.810994+00:00",
        "meta_object_name": "STARLINK-35810",
        "meta_object_id": "2025-268U",
        "meta_epoch": "2025-12-19T06:52:12.470016",
        "meta_mean_motion": 15.50612931,
        "meta_eccentricity": 0.00014691,
        "meta_inclination": 43.0005,
        "meta_ra_of_asc_node": 82.8286,
        "meta_arg_of_pericenter": 262.253,
        "meta_mean_anomaly": 97.8163,
        "meta_ephemeris_type": 0,
        "meta_classification_type": "U",
        "meta_norad_cat_id": 66575,
        "meta_element_set_no": 999,
        "meta_rev_at_epoch": 564,
        "meta_bstar": 0.0010664338,
        "meta_mean_motion_dot": 0.000628,
        "meta_mean_motion_ddot": 0,
        "tle_line1": "1 66575U 25268U   25353.28625544  .00062800  00000+0  10664-2 0  9990",
        "tle_line2": "2 66575  43.0005  82.8286 0001469 262.2530  97.8163 15.50612931  5649"
      },
      "geometry": {
        "type": "Point",
        "coordinates": [
          67.9477320741799,
          -10.529194933638008
        ]
      }
    }
  ]
}